[{"OBJECT_NAME":"STARLINK-1413","OBJECT_ID":"2020-035AJ","EPOCH":"2026-03-09T23:07:21.119232","MEAN_MOTION":15.30196842,"ECCENTRICITY":0.00013861,"INCLINATION":53.1621,"RA_OF_ASC_NODE":48.3049,"ARG_OF_PERICENTER":76.6572,"MEAN_ANOMALY":283.4583,"EPHEMERIS_TYPE":0,"CLASSIFICATION_TYPE":"U","NORAD_CAT_ID":45689,"ELEMENT_SET_NO":999,"REV_AT_EPOCH":31893,"BSTAR":1.4614986e-5,"MEAN_MOTION_DOT":7.4e-7,"MEAN_MOTION_DDOT":0},{"OBJECT_NAME":"COSMOS 2251 DEB","OBJECT_ID":"1993-036BAQ","EPOCH":"2026-03-02T18:09:22.308480","MEAN_MOTION":15.08453793,"ECCENTRICITY":0.0108476,"INCLINATION":73.8355,"RA_OF_ASC_NODE":183.1226,"ARG_OF_PERICENTER":266.0547,"MEAN_ANOMALY":92.8237,"EPHEMERIS_TYPE":0,"CLASSIFICATION_TYPE":"U","NORAD_CAT_ID":36441,"ELEMENT_SET_NO":999,"REV_AT_EPOCH":88171,"BSTAR":0.00067126775,"MEAN_MOTION_DOT":0.00011967,"MEAN_MOTION_DDOT":0}]
